[{"OBJECT_NAME":"ICEYE-X31","OBJECT_ID":"2023-174AJ","EPOCH":"2026-03-09T23:06:20.433600","MEAN_MOTION":15.30950809,"ECCENTRICITY":0.00015021,"INCLINATION":97.3851,"RA_OF_ASC_NODE":144.9524,"ARG_OF_PERICENTER":332.6589,"MEAN_ANOMALY":27.4572,"EPHEMERIS_TYPE":0,"CLASSIFICATION_TYPE":"U","NORAD_CAT_ID":58288,"ELEMENT_SET_NO":999,"REV_AT_EPOCH":12955,"BSTAR":0.00066288467,"MEAN_MOTION_DOT":0.00019777,"MEAN_MOTION_DDOT":0},{"OBJECT_NAME":"STARLINK-32445","OBJECT_ID":"2024-184Q","EPOCH":"2026-03-09T03:59:04.055424","MEAN_MOTION":15.30185321,"ECCENTRICITY":0.00010882,"INCLINATION":53.1627,"RA_OF_ASC_NODE":16.5992,"ARG_OF_PERICENTER":111.4669,"MEAN_ANOMALY":248.6448,"EPHEMERIS_TYPE":0,"CLASSIFICATION_TYPE":"U","NORAD_CAT_ID":61546,"ELEMENT_SET_NO":999,"REV_AT_EPOCH":7842,"BSTAR":-1.8019312e-5,"MEAN_MOTION_DOT":-8.92e-6,"MEAN_MOTION_DDOT":0}]
